STARLINK-35736          
1 66230U 25244AA  25326.45628388  .00092603  00000+0  16521-2 0  9992
2 66230  53.1601  11.3975 0001434  62.6397 297.4758 15.49331379  5198
STARLINK-35735          
1 66231U 25244AB  25326.39141765  .00084744  00000+0  15156-2 0  9995
2 66231  53.1602  11.7039 0002423 149.9709 210.1439 15.49301805  5188
STARLINK-35753          
1 66232U 25244AC  25326.39108819  .00070673  00000+0  12664-2 0  9996
2 66232  53.1603  11.7024 0001114  64.1058 296.0066 15.49328444  5182
STARLINK-35626          
1 66233U 25244AD  25326.39074325  .00073219  00000+0  13110-2 0  9997
2 66233  53.1603  11.6999 0001150  79.7357 280.3782 15.49334651  5185
STARLINK-35537          
1 66234U 25245A   25326.83335647 -.02033800  00000+0 -50729-1 0  9997
2 66234  53.1604  63.4963 0001509  75.4622 167.9777 15.43195981  4907
STARLINK-35541          
1 66235U 25245B   25326.83335647 -.02011288  00000+0 -50134-1 0  9994
2 66235  53.1607  63.4921 0001465  77.4999 167.8059 15.43175739  4850
STARLINK-35454          
1 66236U 25245C   25326.83335647 -.02077191  00000+0 -47092-1 0  9999
2 66236  53.1600  63.4669 0001578  81.9917 175.9252 15.46050461  4748
STARLINK-35557          
1 66237U 25245D   25326.83335647 -.02075506  00000+0 -47070-1 0  9994
2 66237  53.1599  63.4628 0001480  77.7749 182.0282 15.46038744  4909
STARLINK-35556          
1 66238U 25245E   25326.83335647 -.02096980  00000+0 -43079-1 0  9999
2 66238  53.1600  63.4499 0001140  80.5979 185.3630 15.48897813  4904
STARLINK-35554          
1 66239U 25245F   25326.83335647 -.02091893  00000+0 -42983-1 0  9991
2 66239  53.1601  63.4462 0001236  79.3493 188.5274 15.48882661  4745
STARLINK-35546          
1 66240U 25245G   25326.83335647  .00044972  00000+0  81221-3 0  9995
2 66240  53.1603  63.4424 0001397  88.1006 181.7877 15.49301492  4904
STARLINK-35497          
1 66241U 25245H   25326.83335647  .00042665  00000+0  77188-3 0  9990
2 66241  53.1599  63.4387 0001455  68.3943 203.4482 15.49275777  4856
