CCSDS_OMM_VERS = 2.0
CREATION_DATE  = 
ORIGINATOR     = 

OBJECT_NAME    = STARLINK-35736
OBJECT_ID      = 2025-244AA
CENTER_NAME    = EARTH
REF_FRAME      = TEME
TIME_SYSTEM    = UTC
MEAN_ELEMENT_THEORY = SGP/SGP4

EPOCH          = 2025-11-22T10:57:02.927232
MEAN_MOTION    = 15.49331379
ECCENTRICITY   = .00014343
INCLINATION    = 53.1601
RA_OF_ASC_NODE = 11.3975
ARG_OF_PERICENTER = 62.6397
MEAN_ANOMALY   = 297.4758

EPHEMERIS_TYPE = 0
CLASSIFICATION_TYPE = U
NORAD_CAT_ID   = 66230
ELEMENT_SET_NO = 999
REV_AT_EPOCH   = 519
BSTAR          = .1652079E-2
MEAN_MOTION_DOT = .92603E-3
MEAN_MOTION_DDOT = 0

CCSDS_OMM_VERS = 2.0
CREATION_DATE  = 
ORIGINATOR     = 

OBJECT_NAME    = STARLINK-35735
OBJECT_ID      = 2025-244AB
CENTER_NAME    = EARTH
REF_FRAME      = TEME
TIME_SYSTEM    = UTC
MEAN_ELEMENT_THEORY = SGP/SGP4

EPOCH          = 2025-11-22T09:23:38.484960
MEAN_MOTION    = 15.49301805
ECCENTRICITY   = .00024232
INCLINATION    = 53.1602
RA_OF_ASC_NODE = 11.7039
ARG_OF_PERICENTER = 149.9709
MEAN_ANOMALY   = 210.1439

EPHEMERIS_TYPE = 0
CLASSIFICATION_TYPE = U
NORAD_CAT_ID   = 66231
ELEMENT_SET_NO = 999
REV_AT_EPOCH   = 518
BSTAR          = .15155874E-2
MEAN_MOTION_DOT = .84744E-3
MEAN_MOTION_DDOT = 0

CCSDS_OMM_VERS = 2.0
CREATION_DATE  = 
ORIGINATOR     = 

OBJECT_NAME    = STARLINK-35753
OBJECT_ID      = 2025-244AC
CENTER_NAME    = EARTH
REF_FRAME      = TEME
TIME_SYSTEM    = UTC
MEAN_ELEMENT_THEORY = SGP/SGP4

EPOCH          = 2025-11-22T09:23:10.019616
MEAN_MOTION    = 15.49328444
ECCENTRICITY   = .00011147
INCLINATION    = 53.1603
RA_OF_ASC_NODE = 11.7024
ARG_OF_PERICENTER = 64.1058
MEAN_ANOMALY   = 296.0066

EPHEMERIS_TYPE = 0
CLASSIFICATION_TYPE = U
NORAD_CAT_ID   = 66232
ELEMENT_SET_NO = 999
REV_AT_EPOCH   = 518
BSTAR          = .12664239E-2
MEAN_MOTION_DOT = .70673E-3
MEAN_MOTION_DDOT = 0

CCSDS_OMM_VERS = 2.0
CREATION_DATE  = 
ORIGINATOR     = 

OBJECT_NAME    = STARLINK-35626
OBJECT_ID      = 2025-244AD
CENTER_NAME    = EARTH
REF_FRAME      = TEME
TIME_SYSTEM    = UTC
MEAN_ELEMENT_THEORY = SGP/SGP4

EPOCH          = 2025-11-22T09:22:40.216800
MEAN_MOTION    = 15.49334651
ECCENTRICITY   = .00011503
INCLINATION    = 53.1603
RA_OF_ASC_NODE = 11.6999
ARG_OF_PERICENTER = 79.7357
MEAN_ANOMALY   = 280.3782

EPHEMERIS_TYPE = 0
CLASSIFICATION_TYPE = U
NORAD_CAT_ID   = 66233
ELEMENT_SET_NO = 999
REV_AT_EPOCH   = 518
BSTAR          = .13110372E-2
MEAN_MOTION_DOT = .73219E-3
MEAN_MOTION_DDOT = 0

CCSDS_OMM_VERS = 2.0
CREATION_DATE  = 
ORIGINATOR     = 

OBJECT_NAME    = STARLINK-35537
OBJECT_ID      = 2025-245A
CENTER_NAME    = EARTH
REF_FRAME      = TEME
TIME_SYSTEM    = UTC
MEAN_ELEMENT_THEORY = SGP/SGP4

EPOCH          = 2025-11-22T20:00:01.999008
MEAN_MOTION    = 15.43195981
ECCENTRICITY   = .0001509
INCLINATION    = 53.1604
RA_OF_ASC_NODE = 63.4963
ARG_OF_PERICENTER = 75.4622
MEAN_ANOMALY   = 167.9777

EPHEMERIS_TYPE = 0
CLASSIFICATION_TYPE = U
NORAD_CAT_ID   = 66234
ELEMENT_SET_NO = 999
REV_AT_EPOCH   = 490
BSTAR          = -.50729E-1
MEAN_MOTION_DOT = -.20338E-1
MEAN_MOTION_DDOT = 0

CCSDS_OMM_VERS = 2.0
CREATION_DATE  = 
ORIGINATOR     = 

OBJECT_NAME    = STARLINK-35541
OBJECT_ID      = 2025-245B
CENTER_NAME    = EARTH
REF_FRAME      = TEME
TIME_SYSTEM    = UTC
MEAN_ELEMENT_THEORY = SGP/SGP4

EPOCH          = 2025-11-22T20:00:01.999008
MEAN_MOTION    = 15.43175739
ECCENTRICITY   = .0001465
INCLINATION    = 53.1607
RA_OF_ASC_NODE = 63.4921
ARG_OF_PERICENTER = 77.4999
MEAN_ANOMALY   = 167.8059

EPHEMERIS_TYPE = 0
CLASSIFICATION_TYPE = U
NORAD_CAT_ID   = 66235
ELEMENT_SET_NO = 999
REV_AT_EPOCH   = 485
BSTAR          = -.50134E-1
MEAN_MOTION_DOT = -.2011288E-1
MEAN_MOTION_DDOT = 0

CCSDS_OMM_VERS = 2.0
CREATION_DATE  = 
ORIGINATOR     = 

OBJECT_NAME    = STARLINK-35454
OBJECT_ID      = 2025-245C
CENTER_NAME    = EARTH
REF_FRAME      = TEME
TIME_SYSTEM    = UTC
MEAN_ELEMENT_THEORY = SGP/SGP4

EPOCH          = 2025-11-22T20:00:01.999008
MEAN_MOTION    = 15.46050461
ECCENTRICITY   = .0001578
INCLINATION    = 53.1600
RA_OF_ASC_NODE = 63.4669
ARG_OF_PERICENTER = 81.9917
MEAN_ANOMALY   = 175.9252

EPHEMERIS_TYPE = 0
CLASSIFICATION_TYPE = U
NORAD_CAT_ID   = 66236
ELEMENT_SET_NO = 999
REV_AT_EPOCH   = 474
BSTAR          = -.47092E-1
MEAN_MOTION_DOT = -.2077191E-1
MEAN_MOTION_DDOT = 0

CCSDS_OMM_VERS = 2.0
CREATION_DATE  = 
ORIGINATOR     = 

OBJECT_NAME    = STARLINK-35557
OBJECT_ID      = 2025-245D
CENTER_NAME    = EARTH
REF_FRAME      = TEME
TIME_SYSTEM    = UTC
MEAN_ELEMENT_THEORY = SGP/SGP4

EPOCH          = 2025-11-22T20:00:01.999008
MEAN_MOTION    = 15.46038744
ECCENTRICITY   = .000148
INCLINATION    = 53.1599
RA_OF_ASC_NODE = 63.4628
ARG_OF_PERICENTER = 77.7749
MEAN_ANOMALY   = 182.0282

EPHEMERIS_TYPE = 0
CLASSIFICATION_TYPE = U
NORAD_CAT_ID   = 66237
ELEMENT_SET_NO = 999
REV_AT_EPOCH   = 490
BSTAR          = -.4707E-1
MEAN_MOTION_DOT = -.2075506E-1
MEAN_MOTION_DDOT = 0

CCSDS_OMM_VERS = 2.0
CREATION_DATE  = 
ORIGINATOR     = 

OBJECT_NAME    = STARLINK-35556
OBJECT_ID      = 2025-245E
CENTER_NAME    = EARTH
REF_FRAME      = TEME
TIME_SYSTEM    = UTC
MEAN_ELEMENT_THEORY = SGP/SGP4

EPOCH          = 2025-11-22T20:00:01.999008
MEAN_MOTION    = 15.48897813
ECCENTRICITY   = .000114
INCLINATION    = 53.1600
RA_OF_ASC_NODE = 63.4499
ARG_OF_PERICENTER = 80.5979
MEAN_ANOMALY   = 185.3630

EPHEMERIS_TYPE = 0
CLASSIFICATION_TYPE = U
NORAD_CAT_ID   = 66238
ELEMENT_SET_NO = 999
REV_AT_EPOCH   = 490
BSTAR          = -.43079E-1
MEAN_MOTION_DOT = -.209698E-1
MEAN_MOTION_DDOT = 0

CCSDS_OMM_VERS = 2.0
CREATION_DATE  = 
ORIGINATOR     = 

OBJECT_NAME    = STARLINK-35554
OBJECT_ID      = 2025-245F
CENTER_NAME    = EARTH
REF_FRAME      = TEME
TIME_SYSTEM    = UTC
MEAN_ELEMENT_THEORY = SGP/SGP4

EPOCH          = 2025-11-22T20:00:01.999008
MEAN_MOTION    = 15.48882661
ECCENTRICITY   = .0001236
INCLINATION    = 53.1601
RA_OF_ASC_NODE = 63.4462
ARG_OF_PERICENTER = 79.3493
MEAN_ANOMALY   = 188.5274

EPHEMERIS_TYPE = 0
CLASSIFICATION_TYPE = U
NORAD_CAT_ID   = 66239
ELEMENT_SET_NO = 999
REV_AT_EPOCH   = 474
BSTAR          = -.42983E-1
MEAN_MOTION_DOT = -.2091893E-1
MEAN_MOTION_DDOT = 0

CCSDS_OMM_VERS = 2.0
CREATION_DATE  = 
ORIGINATOR     = 

OBJECT_NAME    = STARLINK-35546
OBJECT_ID      = 2025-245G
CENTER_NAME    = EARTH
REF_FRAME      = TEME
TIME_SYSTEM    = UTC
MEAN_ELEMENT_THEORY = SGP/SGP4

EPOCH          = 2025-11-22T20:00:01.999008
MEAN_MOTION    = 15.49301492
ECCENTRICITY   = .0001397
INCLINATION    = 53.1603
RA_OF_ASC_NODE = 63.4424
ARG_OF_PERICENTER = 88.1006
MEAN_ANOMALY   = 181.7877

EPHEMERIS_TYPE = 0
CLASSIFICATION_TYPE = U
NORAD_CAT_ID   = 66240
ELEMENT_SET_NO = 999
REV_AT_EPOCH   = 490
BSTAR          = .81221E-3
MEAN_MOTION_DOT = .44972E-3
MEAN_MOTION_DDOT = 0

CCSDS_OMM_VERS = 2.0
CREATION_DATE  = 
ORIGINATOR     = 

OBJECT_NAME    = STARLINK-35497
OBJECT_ID      = 2025-245H
CENTER_NAME    = EARTH
REF_FRAME      = TEME
TIME_SYSTEM    = UTC
MEAN_ELEMENT_THEORY = SGP/SGP4

EPOCH          = 2025-11-22T20:00:01.999008
MEAN_MOTION    = 15.49275777
ECCENTRICITY   = .0001455
INCLINATION    = 53.1599
RA_OF_ASC_NODE = 63.4387
ARG_OF_PERICENTER = 68.3943
MEAN_ANOMALY   = 203.4482

EPHEMERIS_TYPE = 0
CLASSIFICATION_TYPE = U
NORAD_CAT_ID   = 66241
ELEMENT_SET_NO = 999
REV_AT_EPOCH   = 485
BSTAR          = .77188E-3
MEAN_MOTION_DOT = .42665E-3
MEAN_MOTION_DDOT = 0

